ONEWEB-0061             
1 45428U 20020E   24334.72509036 -.00000045  00000+0 -16179-3 0  9992
2 45428  87.8876 133.5154 0001431  91.4273 268.7019 13.11417974228649
ONEWEB-0081             
1 45429U 20020F   24334.70656321 -.00000546  00000+0 -15769-2 0  9990
2 45429  87.8900 133.5382 0001632  87.7875 272.3440 13.11415036228758
ONEWEB-0069             
1 45430U 20020G   24334.69639658 -.00000252  00000+0 -74754-3 0  9998
2 45430  87.8888 133.5301 0001344  94.5736 265.5545 13.11413842228683
ONEWEB-0031             
1 45431U 20020H   24334.89648218  .00000530  00000+0  14607-2 0  9990
2 45431  87.8889 133.5079 0001413  96.1553 263.9736 13.11416326228694
ONEWEB-0027             
1 45432U 20020J   24334.64536455  .00000002  00000+0 -27539-4 0  9998
2 45432  87.9082 118.3148 0001361 109.9088 250.2190 13.17650865232015
ONEWEB-0064             
1 45433U 20020K   24334.89478918  .00000629  00000+0  17394-2 0  9995
2 45433  87.8891 133.5100 0001300  96.3405 263.7871 13.11417720228739
