<?xml version="1.0" encoding="UTF-8"?>
<ndm xmlns:xsi="http://www.w3.org/2001/XMLSchema-instance" xsi:noNamespaceSchemaLocation="https://sanaregistry.org/r/ndmxml_unqualified/ndmxml-2.0.0-master-2.0.xsd">
<omm id="CCSDS_OMM_VERS" version="2.0">
<header><CREATION_DATE/><ORIGINATOR/></header><body><segment><metadata><OBJECT_NAME>ONEWEB-0061</OBJECT_NAME><OBJECT_ID>2020-020E</OBJECT_ID><CENTER_NAME>EARTH</CENTER_NAME><REF_FRAME>TEME</REF_FRAME><TIME_SYSTEM>UTC</TIME_SYSTEM><MEAN_ELEMENT_THEORY>SGP4</MEAN_ELEMENT_THEORY></metadata><data><meanElements><EPOCH>2024-11-29T17:24:07.807104</EPOCH><MEAN_MOTION>13.11417974</MEAN_MOTION><ECCENTRICITY>.0001431</ECCENTRICITY><INCLINATION>87.8876</INCLINATION><RA_OF_ASC_NODE>133.5154</RA_OF_ASC_NODE><ARG_OF_PERICENTER>91.4273</ARG_OF_PERICENTER><MEAN_ANOMALY>268.7019</MEAN_ANOMALY></meanElements><tleParameters><EPHEMERIS_TYPE>0</EPHEMERIS_TYPE><CLASSIFICATION_TYPE>U</CLASSIFICATION_TYPE><NORAD_CAT_ID>45428</NORAD_CAT_ID><ELEMENT_SET_NO>999</ELEMENT_SET_NO><REV_AT_EPOCH>22864</REV_AT_EPOCH><BSTAR>-.16179E-3</BSTAR><MEAN_MOTION_DOT>-.45E-6</MEAN_MOTION_DOT><MEAN_MOTION_DDOT>0</MEAN_MOTION_DDOT></tleParameters></data></segment></body></omm>
<omm id="CCSDS_OMM_VERS" version="2.0">
<header><CREATION_DATE/><ORIGINATOR/></header><body><segment><metadata><OBJECT_NAME>ONEWEB-0081</OBJECT_NAME><OBJECT_ID>2020-020F</OBJECT_ID><CENTER_NAME>EARTH</CENTER_NAME><REF_FRAME>TEME</REF_FRAME><TIME_SYSTEM>UTC</TIME_SYSTEM><MEAN_ELEMENT_THEORY>SGP4</MEAN_ELEMENT_THEORY></metadata><data><meanElements><EPOCH>2024-11-29T16:57:27.061344</EPOCH><MEAN_MOTION>13.11415036</MEAN_MOTION><ECCENTRICITY>.0001632</ECCENTRICITY><INCLINATION>87.8900</INCLINATION><RA_OF_ASC_NODE>133.5382</RA_OF_ASC_NODE><ARG_OF_PERICENTER>87.7875</ARG_OF_PERICENTER><MEAN_ANOMALY>272.3440</MEAN_ANOMALY></meanElements><tleParameters><EPHEMERIS_TYPE>0</EPHEMERIS_TYPE><CLASSIFICATION_TYPE>U</CLASSIFICATION_TYPE><NORAD_CAT_ID>45429</NORAD_CAT_ID><ELEMENT_SET_NO>999</ELEMENT_SET_NO><REV_AT_EPOCH>22875</REV_AT_EPOCH><BSTAR>-.15769E-2</BSTAR><MEAN_MOTION_DOT>-.546E-5</MEAN_MOTION_DOT><MEAN_MOTION_DDOT>0</MEAN_MOTION_DDOT></tleParameters></data></segment></body></omm>
<omm id="CCSDS_OMM_VERS" version="2.0">
<header><CREATION_DATE/><ORIGINATOR/></header><body><segment><metadata><OBJECT_NAME>ONEWEB-0069</OBJECT_NAME><OBJECT_ID>2020-020G</OBJECT_ID><CENTER_NAME>EARTH</CENTER_NAME><REF_FRAME>TEME</REF_FRAME><TIME_SYSTEM>UTC</TIME_SYSTEM><MEAN_ELEMENT_THEORY>SGP4</MEAN_ELEMENT_THEORY></metadata><data><meanElements><EPOCH>2024-11-29T16:42:48.664512</EPOCH><MEAN_MOTION>13.11413842</MEAN_MOTION><ECCENTRICITY>.0001344</ECCENTRICITY><INCLINATION>87.8888</INCLINATION><RA_OF_ASC_NODE>133.5301</RA_OF_ASC_NODE><ARG_OF_PERICENTER>94.5736</ARG_OF_PERICENTER><MEAN_ANOMALY>265.5545</MEAN_ANOMALY></meanElements><tleParameters><EPHEMERIS_TYPE>0</EPHEMERIS_TYPE><CLASSIFICATION_TYPE>U</CLASSIFICATION_TYPE><NORAD_CAT_ID>45430</NORAD_CAT_ID><ELEMENT_SET_NO>999</ELEMENT_SET_NO><REV_AT_EPOCH>22868</REV_AT_EPOCH><BSTAR>-.74754E-3</BSTAR><MEAN_MOTION_DOT>-.252E-5</MEAN_MOTION_DOT><MEAN_MOTION_DDOT>0</MEAN_MOTION_DDOT></tleParameters></data></segment></body></omm>
<omm id="CCSDS_OMM_VERS" version="2.0">
<header><CREATION_DATE/><ORIGINATOR/></header><body><segment><metadata><OBJECT_NAME>ONEWEB-0031</OBJECT_NAME><OBJECT_ID>2020-020H</OBJECT_ID><CENTER_NAME>EARTH</CENTER_NAME><REF_FRAME>TEME</REF_FRAME><TIME_SYSTEM>UTC</TIME_SYSTEM><MEAN_ELEMENT_THEORY>SGP4</MEAN_ELEMENT_THEORY></metadata><data><meanElements><EPOCH>2024-11-29T21:30:56.060352</EPOCH><MEAN_MOTION>13.11416326</MEAN_MOTION><ECCENTRICITY>.0001413</ECCENTRICITY><INCLINATION>87.8889</INCLINATION><RA_OF_ASC_NODE>133.5079</RA_OF_ASC_NODE><ARG_OF_PERICENTER>96.1553</ARG_OF_PERICENTER><MEAN_ANOMALY>263.9736</MEAN_ANOMALY></meanElements><tleParameters><EPHEMERIS_TYPE>0</EPHEMERIS_TYPE><CLASSIFICATION_TYPE>U</CLASSIFICATION_TYPE><NORAD_CAT_ID>45431</NORAD_CAT_ID><ELEMENT_SET_NO>999</ELEMENT_SET_NO><REV_AT_EPOCH>22869</REV_AT_EPOCH><BSTAR>.14607E-2</BSTAR><MEAN_MOTION_DOT>.53E-5</MEAN_MOTION_DOT><MEAN_MOTION_DDOT>0</MEAN_MOTION_DDOT></tleParameters></data></segment></body></omm>
<omm id="CCSDS_OMM_VERS" version="2.0">
<header><CREATION_DATE/><ORIGINATOR/></header><body><segment><metadata><OBJECT_NAME>ONEWEB-0027</OBJECT_NAME><OBJECT_ID>2020-020J</OBJECT_ID><CENTER_NAME>EARTH</CENTER_NAME><REF_FRAME>TEME</REF_FRAME><TIME_SYSTEM>UTC</TIME_SYSTEM><MEAN_ELEMENT_THEORY>SGP4</MEAN_ELEMENT_THEORY></metadata><data><meanElements><EPOCH>2024-11-29T15:29:19.497120</EPOCH><MEAN_MOTION>13.17650865</MEAN_MOTION><ECCENTRICITY>.0001361</ECCENTRICITY><INCLINATION>87.9082</INCLINATION><RA_OF_ASC_NODE>118.3148</RA_OF_ASC_NODE><ARG_OF_PERICENTER>109.9088</ARG_OF_PERICENTER><MEAN_ANOMALY>250.2190</MEAN_ANOMALY></meanElements><tleParameters><EPHEMERIS_TYPE>0</EPHEMERIS_TYPE><CLASSIFICATION_TYPE>U</CLASSIFICATION_TYPE><NORAD_CAT_ID>45432</NORAD_CAT_ID><ELEMENT_SET_NO>999</ELEMENT_SET_NO><REV_AT_EPOCH>23201</REV_AT_EPOCH><BSTAR>-.27539E-4</BSTAR><MEAN_MOTION_DOT>.2E-7</MEAN_MOTION_DOT><MEAN_MOTION_DDOT>0</MEAN_MOTION_DDOT></tleParameters></data></segment></body></omm>
<omm id="CCSDS_OMM_VERS" version="2.0">
<header><CREATION_DATE/><ORIGINATOR/></header><body><segment><metadata><OBJECT_NAME>ONEWEB-0064</OBJECT_NAME><OBJECT_ID>2020-020K</OBJECT_ID><CENTER_NAME>EARTH</CENTER_NAME><REF_FRAME>TEME</REF_FRAME><TIME_SYSTEM>UTC</TIME_SYSTEM><MEAN_ELEMENT_THEORY>SGP4</MEAN_ELEMENT_THEORY></metadata><data><meanElements><EPOCH>2024-11-29T21:28:29.785152</EPOCH><MEAN_MOTION>13.11417720</MEAN_MOTION><ECCENTRICITY>.00013</ECCENTRICITY><INCLINATION>87.8891</INCLINATION><RA_OF_ASC_NODE>133.5100</RA_OF_ASC_NODE><ARG_OF_PERICENTER>96.3405</ARG_OF_PERICENTER><MEAN_ANOMALY>263.7871</MEAN_ANOMALY></meanElements><tleParameters><EPHEMERIS_TYPE>0</EPHEMERIS_TYPE><CLASSIFICATION_TYPE>U</CLASSIFICATION_TYPE><NORAD_CAT_ID>45433</NORAD_CAT_ID><ELEMENT_SET_NO>999</ELEMENT_SET_NO><REV_AT_EPOCH>22872</REV_AT_EPOCH><BSTAR>.17394E-2</BSTAR><MEAN_MOTION_DOT>.629E-5</MEAN_MOTION_DOT><MEAN_MOTION_DDOT>0</MEAN_MOTION_DDOT></tleParameters></data></segment></body></omm>

</ndm>
